{"type": "FeatureCollection", "features": [ {"type": "Feature", "properties": {"norad_id": 41828, "name": "FENGYUN 1C DEB", "group": "fengyun-1c-debris", "lat": -37.404650873585524, "lon": 126.10456890965041, "alt_km": 751.4468778856435, "timestamp": "2025-12-16T21:38:57.465070+00:00", "meta": {"OBJECT_NAME": "FENGYUN 1C DEB", "OBJECT_ID": "1999-025EYF", "EPOCH": "2025-12-16T06:56:19.476384", "MEAN_MOTION": 14.51833636, "ECCENTRICITY": 0.00386339, "INCLINATION": 98.9217, "RA_OF_ASC_NODE": 118.5549, "ARG_OF_PERICENTER": 165.6009, "MEAN_ANOMALY": 194.6294, "EPHEMERIS_TYPE": 0, "CLASSIFICATION_TYPE": "U", "NORAD_CAT_ID": 41828, "ELEMENT_SET_NO": 999, "REV_AT_EPOCH": 47515, "BSTAR": 0.0033991413, "MEAN_MOTION_DOT": 0.00013792, "MEAN_MOTION_DDOT": 0}, "tle": {"line1": "1 41828U 99025EYF 25350.28911431  .00013792  00000+0  33991-2 0  9990", "line2": "2 41828  98.9217 118.5549 0038633 165.6009 194.6294 14.51833636475151"}}, "geometry": {"type": "Point", "coordinates": [126.10456890965041, -37.404650873585524]}}, {"type": "Feature", "properties": {"norad_id": 41829, "name": "FENGYUN 1C DEB", "group": "fengyun-1c-debris", "lat": 4.941768066210959, "lon": -119.13615387064458, "alt_km": 775.7254857384914, "timestamp": "2025-12-16T21:38:57.465080+00:00", "meta": {"OBJECT_NAME": "FENGYUN 1C DEB", "OBJECT_ID": "1999-025EYG", "EPOCH": "2025-12-16T03:58:41.954304", "MEAN_MOTION": 14.25146188, "ECCENTRICITY": 0.00566405, "INCLINATION": 98.7451, "RA_OF_ASC_NODE": 59.3676, "ARG_OF_PERICENTER": 209.2096, "MEAN_ANOMALY": 150.5913, "EPHEMERIS_TYPE": 0, "CLASSIFICATION_TYPE": "U", "NORAD_CAT_ID": 41829, "ELEMENT_SET_NO": 999, "REV_AT_EPOCH": 47356, "BSTAR": 0.0010818297, "MEAN_MOTION_DOT": 2.538e-05, "MEAN_MOTION_DDOT": 0}, "tle": {"line1": "1 41829U 99025EYG 25350.16576336  .00002538  00000+0  10818-2 0  9998", "line2": "2 41829  98.7451  59.3676 0056640 209.2096 150.5913 14.25146188473564"}}, "geometry": {"type": "Point", "coordinates": [-119.13615387064458, 4.941768066210959]}}, {"type": "Feature", "properties": {"norad_id": 41830, "name": "FENGYUN 1C DEB", "group": "fengyun-1c-debris", "lat": 14.343337539090609, "lon": 60.624976897449244, "alt_km": 843.1466234666987, "timestamp": "2025-12-16T21:38:57.465091+00:00", "meta": {"OBJECT_NAME": "FENGYUN 1C DEB", "OBJECT_ID": "1999-025EYH", "EPOCH": "2025-12-15T16:57:44.876160", "MEAN_MOTION": 14.26474606, "ECCENTRICITY": 0.00548153, "INCLINATION": 98.7533, "RA_OF_ASC_NODE": 61.6881, "ARG_OF_PERICENTER": 208.2292, "MEAN_ANOMALY": 151.5914, "EPHEMERIS_TYPE": 0, "CLASSIFICATION_TYPE": "U", "NORAD_CAT_ID": 41830, "ELEMENT_SET_NO": 999, "REV_AT_EPOCH": 47316, "BSTAR": 0.001263818, "MEAN_MOTION_DOT": 3.048e-05, "MEAN_MOTION_DDOT": 0}, "tle": {"line1": "1 41830U 99025EYH 25349.70676940  .00003048  00000+0  12638-2 0  9999", "line2": "2 41830  98.7533  61.6881 0054815 208.2292 151.5914 14.26474606473168"}}, "geometry": {"type": "Point", "coordinates": [60.624976897449244, 14.343337539090609]}}, {"type": "Feature", "properties": {"norad_id": 41831, "name": "FENGYUN 1C DEB", "group": "fengyun-1c-debris", "lat": 7.754794545354881, "lon": -121.06460999552705, "alt_km": 779.3430214976661, "timestamp": "2025-12-16T21:38:57.465101+00:00", "meta": {"OBJECT_NAME": "FENGYUN 1C DEB", "OBJECT_ID": "1999-025EYJ", "EPOCH": "2025-12-16T03:59:04.072704", "MEAN_MOTION": 14.24592279, "ECCENTRICITY": 0.0056417, "INCLINATION": 98.735, "RA_OF_ASC_NODE": 57.0038, "ARG_OF_PERICENTER": 211.4362, "MEAN_ANOMALY": 148.3441, "EPHEMERIS_TYPE": 0, "CLASSIFICATION_TYPE": "U", "NORAD_CAT_ID": 41831, "ELEMENT_SET_NO": 999, "REV_AT_EPOCH": 47308, "BSTAR": 0.0011361188, "MEAN_MOTION_DOT": 2.638e-05, "MEAN_MOTION_DDOT": 0}, "tle": {"line1": "1 41831U 99025EYJ 25350.16601936  .00002638  00000+0  11361-2 0  9991", "line2": "2 41831  98.7350  57.0038 0056417 211.4362 148.3441 14.24592279473088"}}, "geometry": {"type": "Point", "coordinates": [-121.06460999552705, 7.754794545354881]}}, {"type": "Feature", "properties": {"norad_id": 41832, "name": "FENGYUN 1C DEB", "group": "fengyun-1c-debris", "lat": -41.75031179318725, "lon": -132.98428922728678, "alt_km": 777.8669832407213, "timestamp": "2025-12-16T21:38:57.465111+00:00", "meta": {"OBJECT_NAME": "FENGYUN 1C DEB", "OBJECT_ID": "1999-025EYK", "EPOCH": "2025-12-16T03:44:50.125344", "MEAN_MOTION": 14.24261814, "ECCENTRICITY": 0.00557521, "INCLINATION": 98.7296, "RA_OF_ASC_NODE": 54.1571, "ARG_OF_PERICENTER": 215.826, "MEAN_ANOMALY": 143.9174, "EPHEMERIS_TYPE": 0, "CLASSIFICATION_TYPE": "U", "NORAD_CAT_ID": 41832, "ELEMENT_SET_NO": 999, "REV_AT_EPOCH": 47399, "BSTAR": 0.0011453082, "MEAN_MOTION_DOT": 2.642e-05, "MEAN_MOTION_DDOT": 0}, "tle": {"line1": "1 41832U 99025EYK 25350.15613571  .00002642  00000+0  11453-2 0  9996", "line2": "2 41832  98.7296  54.1571 0055752 215.8260 143.9174 14.24261814473996"}}, "geometry": {"type": "Point", "coordinates": [-132.98428922728678, -41.75031179318725]}}, {"type": "Feature", "properties": {"norad_id": 41833, "name": "FENGYUN 1C DEB", "group": "fengyun-1c-debris", "lat": 80.74654455919622, "lon": -48.59987323164999, "alt_km": 816.6774321296625, "timestamp": "2025-12-16T21:38:57.465123+00:00", "meta": {"OBJECT_NAME": "FENGYUN 1C DEB", "OBJECT_ID": "1999-025EYL", "EPOCH": "2025-12-16T04:22:07.906080", "MEAN_MOTION": 14.25839728, "ECCENTRICITY": 0.00545875, "INCLINATION": 98.7487, "RA_OF_ASC_NODE": 59.7419, "ARG_OF_PERICENTER": 213.4575, "MEAN_ANOMALY": 146.3152, "EPHEMERIS_TYPE": 0, "CLASSIFICATION_TYPE": "U", "NORAD_CAT_ID": 41833, "ELEMENT_SET_NO": 999, "REV_AT_EPOCH": 47413, "BSTAR": 0.0012718537, "MEAN_MOTION_DOT": 3.029e-05, "MEAN_MOTION_DDOT": 0}, "tle": {"line1": "1 41833U 99025EYL 25350.18203595  .00003029  00000+0  12719-2 0  9997", "line2": "2 41833  98.7487  59.7419 0054587 213.4575 146.3152 14.25839728474135"}}, "geometry": {"type": "Point", "coordinates": [-48.59987323164999, 80.74654455919622]}}, {"type": "Feature", "properties": {"norad_id": 43213, "name": "FENGYUN 1C DEB", "group": "fengyun-1c-debris", "lat": -81.11157259117915, "lon": 155.83721517321118, "alt_km": 795.8117172073562, "timestamp": "2025-12-16T21:38:57.465133+00:00", "meta": {"OBJECT_NAME": "FENGYUN 1C DEB", "OBJECT_ID": "1999-025EYM", "EPOCH": "2025-12-16T03:31:41.934432", "MEAN_MOTION": 14.23879709, "ECCENTRICITY": 0.00550587, "INCLINATION": 98.7347, "RA_OF_ASC_NODE": 54.5261, "ARG_OF_PERICENTER": 217.1926, "MEAN_ANOMALY": 142.5434, "EPHEMERIS_TYPE": 0, "CLASSIFICATION_TYPE": "U", "NORAD_CAT_ID": 43213, "ELEMENT_SET_NO": 999, "REV_AT_EPOCH": 40421, "BSTAR": 0.0010832225, "MEAN_MOTION_DOT": 2.476e-05, "MEAN_MOTION_DDOT": 0}, "tle": {"line1": "1 43213U 99025EYM 25350.14701313  .00002476  00000+0  10832-2 0  9997", "line2": "2 43213  98.7347  54.5261 0055058 217.1926 142.5434 14.23879709404211"}}, "geometry": {"type": "Point", "coordinates": [155.83721517321118, -81.11157259117915]}}, {"type": "Feature", "properties": {"norad_id": 43214, "name": "FENGYUN 1C DEB", "group": "fengyun-1c-debris", "lat": -17.181788867199433, "lon": -127.13675299351866, "alt_km": 778.0079241657322, "timestamp": "2025-12-16T21:38:57.465143+00:00", "meta": {"OBJECT_NAME": "FENGYUN 1C DEB", "OBJECT_ID": "1999-025EYN", "EPOCH": "2025-12-16T03:51:41.583744", "MEAN_MOTION": 14.24154729, "ECCENTRICITY": 0.0055668, "INCLINATION": 98.7369, "RA_OF_ASC_NODE": 54.852, "ARG_OF_PERICENTER": 217.0101, "MEAN_ANOMALY": 142.7233, "EPHEMERIS_TYPE": 0, "CLASSIFICATION_TYPE": "U", "NORAD_CAT_ID": 43214, "ELEMENT_SET_NO": 999, "REV_AT_EPOCH": 40452, "BSTAR": 0.0011336309, "MEAN_MOTION_DOT": 2.609e-05, "MEAN_MOTION_DDOT": 0}, "tle": {"line1": "1 43214U 99025EYN 25350.16089796  .00002609  00000+0  11336-2 0  9992", "line2": "2 43214  98.7369  54.8520 0055668 217.0101 142.7233 14.24154729404520"}}, "geometry": {"type": "Point", "coordinates": [-127.13675299351866, -17.181788867199433]}}, {"type": "Feature", "properties": {"norad_id": 43358, "name": "FENGYUN 1C DEB", "group": "fengyun-1c-debris", "lat": 60.896954398762816, "lon": -53.71285713221702, "alt_km": 1018.476151029784, "timestamp": "2025-12-16T21:38:57.465154+00:00", "meta": {"OBJECT_NAME": "FENGYUN 1C DEB", "OBJECT_ID": "1999-025EYP", "EPOCH": "2025-12-16T06:42:23.612544", "MEAN_MOTION": 13.40381949, "ECCENTRICITY": 0.03677334, "INCLINATION": 98.6873, "RA_OF_ASC_NODE": 109.8106, "ARG_OF_PERICENTER": 193.7937, "MEAN_ANOMALY": 165.2931, "EPHEMERIS_TYPE": 0, "CLASSIFICATION_TYPE": "U", "NORAD_CAT_ID": 43358, "ELEMENT_SET_NO": 999, "REV_AT_EPOCH": 53778, "BSTAR": 0.0017667301, "MEAN_MOTION_DOT": 1.402e-05, "MEAN_MOTION_DDOT": 0}, "tle": {"line1": "1 43358U 99025EYP 25350.27943996  .00001402  00000+0  17667-2 0  9997", "line2": "2 43358  98.6873 109.8106 0367733 193.7937 165.2931 13.40381949537788"}}, "geometry": {"type": "Point", "coordinates": [-53.71285713221702, 60.896954398762816]}}, {"type": "Feature", "properties": {"norad_id": 43359, "name": "FENGYUN 1C DEB", "group": "fengyun-1c-debris", "lat": 79.5287292082808, "lon": 11.381926952744523, "alt_km": 799.4604182503645, "timestamp": "2025-12-16T21:38:57.465164+00:00", "meta": {"OBJECT_NAME": "FENGYUN 1C DEB", "OBJECT_ID": "1999-025EYQ", "EPOCH": "2025-12-16T04:23:02.465088", "MEAN_MOTION": 14.23193375, "ECCENTRICITY": 0.00734021, "INCLINATION": 99.0539, "RA_OF_ASC_NODE": 70.2672, "ARG_OF_PERICENTER": 4.7578, "MEAN_ANOMALY": 355.4281, "EPHEMERIS_TYPE": 0, "CLASSIFICATION_TYPE": "U", "NORAD_CAT_ID": 43359, "ELEMENT_SET_NO": 999, "REV_AT_EPOCH": 47798, "BSTAR": 0.0014041177, "MEAN_MOTION_DOT": 3.217e-05, "MEAN_MOTION_DDOT": 0}, "tle": {"line1": "1 43359U 99025EYQ 25350.18266742  .00003217  00000+0  14041-2 0  9994", "line2": "2 43359  99.0539  70.2672 0073402   4.7578 355.4281 14.23193375477983"}}, "geometry": {"type": "Point", "coordinates": [11.381926952744523, 79.5287292082808]}}]}